{"type": "FeatureCollection", "features": [ {"type": "Feature", "properties": {"norad_id": 66989, "name": "CZ-4B R/B", "group": "last-30-days", "lat": 36.19851472601543, "lon": -107.91586515682808, "alt_km": 446.5422255176136, "timestamp": "2025-12-26T04:40:04.513568+00:00", "meta": {"OBJECT_NAME": "CZ-4B R/B", "OBJECT_ID": "2025-289B", "EPOCH": "2025-12-25T15:49:10.266240", "MEAN_MOTION": 15.70391772, "ECCENTRICITY": 0.0139095, "INCLINATION": 97.5227, "RA_OF_ASC_NODE": 65.9579, "ARG_OF_PERICENTER": 313.9156, "MEAN_ANOMALY": 45.069, "EPHEMERIS_TYPE": 0, "CLASSIFICATION_TYPE": "U", "NORAD_CAT_ID": 66989, "ELEMENT_SET_NO": 999, "REV_AT_EPOCH": 259, "BSTAR": 0.00061039536, "MEAN_MOTION_DOT": 0.00132054, "MEAN_MOTION_DDOT": 7.351938e-06}, "tle": {"line1": "1 66989U 25289B   25359.65914660  .00132054  73519-5  61040-3 0  9994", "line2": "2 66989  97.5227  65.9579 0139095 313.9156  45.0690 15.70391772  2590"}}, "geometry": {"type": "Point", "coordinates": [-107.91586515682808, 36.19851472601543]}}, {"type": "Feature", "properties": {"norad_id": 66990, "name": "TJS-22", "group": "last-30-days", "lat": -1.5877050127601622, "lon": -128.6059647073429, "alt_km": 35774.828281666756, "timestamp": "2025-12-26T04:40:04.513582+00:00", "meta": {"OBJECT_NAME": "TJS-22", "OBJECT_ID": "2025-290A", "EPOCH": "2025-12-25T08:20:16.719072", "MEAN_MOTION": 1.00271569, "ECCENTRICITY": 0.0003394, "INCLINATION": 1.9567, "RA_OF_ASC_NODE": 285.0378, "ARG_OF_PERICENTER": 343.2067, "MEAN_ANOMALY": 17.3836, "EPHEMERIS_TYPE": 0, "CLASSIFICATION_TYPE": "U", "NORAD_CAT_ID": 66990, "ELEMENT_SET_NO": 999, "REV_AT_EPOCH": 28, "BSTAR": 0, "MEAN_MOTION_DOT": 1.5e-07, "MEAN_MOTION_DDOT": 0}, "tle": {"line1": "1 66990U 25290A   25359.34741573  .00000015  00000+0  00000+0 0  9990", "line2": "2 66990   1.9567 285.0378 0003394 343.2067  17.3836  1.00271569   286"}}, "geometry": {"type": "Point", "coordinates": [-128.6059647073429, -1.5877050127601622]}}, {"type": "Feature", "properties": {"norad_id": 66991, "name": "CZ-3B R/B", "group": "last-30-days", "lat": 4.0819804536484, "lon": -56.107948904999404, "alt_km": 34264.954342852914, "timestamp": "2025-12-26T04:40:04.513595+00:00", "meta": {"OBJECT_NAME": "CZ-3B R/B", "OBJECT_ID": "2025-290B", "EPOCH": "2025-12-15T17:23:33.043200", "MEAN_MOTION": 2.38388611, "ECCENTRICITY": 0.7240884, "INCLINATION": 28.4636, "RA_OF_ASC_NODE": 300.4666, "ARG_OF_PERICENTER": 182.7002, "MEAN_ANOMALY": 168.625, "EPHEMERIS_TYPE": 0, "CLASSIFICATION_TYPE": "U", "NORAD_CAT_ID": 66991, "ELEMENT_SET_NO": 999, "REV_AT_EPOCH": 16, "BSTAR": 0.00075879, "MEAN_MOTION_DOT": 0.00057911, "MEAN_MOTION_DDOT": -2.0514e-07}, "tle": {"line1": "1 66991U 25290B   25349.72468800  .00057911 -20514-6  75879-3 0  9998", "line2": "2 66991  28.4636 300.4666 7240884 182.7002 168.6250  2.38388611   165"}}, "geometry": {"type": "Point", "coordinates": [-56.107948904999404, 4.0819804536484]}}, {"type": "Feature", "properties": {"norad_id": 66993, "name": "2025-292A", "group": "last-30-days", "lat": 72.04819878764324, "lon": -82.8784699440608, "alt_km": 550.557516097384, "timestamp": "2025-12-26T04:40:04.513605+00:00", "meta": {"OBJECT_NAME": "2025-292A", "OBJECT_ID": "2025-292A", "EPOCH": "2025-12-25T21:48:42.169824", "MEAN_MOTION": 15.04592328, "ECCENTRICITY": 0.00146769, "INCLINATION": 97.6493, "RA_OF_ASC_NODE": 72.3309, "ARG_OF_PERICENTER": 225.0249, "MEAN_ANOMALY": 134.9788, "EPHEMERIS_TYPE": 0, "CLASSIFICATION_TYPE": "U", "NORAD_CAT_ID": 66993, "ELEMENT_SET_NO": 999, "REV_AT_EPOCH": 237, "BSTAR": 0.00030594208, "MEAN_MOTION_DOT": 4.242e-05, "MEAN_MOTION_DDOT": 0}, "tle": {"line1": "1 66993U 25292A   25359.90882141  .00004242  00000+0  30594-3 0  9995", "line2": "2 66993  97.6493  72.3309 0014676 225.0249 134.9788 15.04592328  2376"}}, "geometry": {"type": "Point", "coordinates": [-82.8784699440608, 72.04819878764324]}}, {"type": "Feature", "properties": {"norad_id": 66994, "name": "2025-292B", "group": "last-30-days", "lat": 69.6762576586003, "lon": -86.10502213939223, "alt_km": 550.163916359521, "timestamp": "2025-12-26T04:40:04.513616+00:00", "meta": {"OBJECT_NAME": "2025-292B", "OBJECT_ID": "2025-292B", "EPOCH": "2025-12-25T21:48:01.624032", "MEAN_MOTION": 15.0464196, "ECCENTRICITY": 0.00144651, "INCLINATION": 97.6502, "RA_OF_ASC_NODE": 72.3331, "ARG_OF_PERICENTER": 225.3503, "MEAN_ANOMALY": 134.6545, "EPHEMERIS_TYPE": 0, "CLASSIFICATION_TYPE": "U", "NORAD_CAT_ID": 66994, "ELEMENT_SET_NO": 999, "REV_AT_EPOCH": 237, "BSTAR": 0.00034475511, "MEAN_MOTION_DOT": 4.794e-05, "MEAN_MOTION_DDOT": 0}, "tle": {"line1": "1 66994U 25292B   25359.90835213  .00004794  00000+0  34476-3 0  9999", "line2": "2 66994  97.6502  72.3331 0014465 225.3503 134.6545 15.04641960  2370"}}, "geometry": {"type": "Point", "coordinates": [-86.10502213939223, 69.6762576586003]}}, {"type": "Feature", "properties": {"norad_id": 66995, "name": "2025-292C", "group": "last-30-days", "lat": 68.65082986111118, "lon": -87.27339917001139, "alt_km": 550.0896677624569, "timestamp": "2025-12-26T04:40:04.513627+00:00", "meta": {"OBJECT_NAME": "2025-292C", "OBJECT_ID": "2025-292C", "EPOCH": "2025-12-25T05:50:07.257120", "MEAN_MOTION": 15.04668363, "ECCENTRICITY": 0.0014688, "INCLINATION": 97.6495, "RA_OF_ASC_NODE": 71.6733, "ARG_OF_PERICENTER": 227.9665, "MEAN_ANOMALY": 132.0312, "EPHEMERIS_TYPE": 0, "CLASSIFICATION_TYPE": "U", "NORAD_CAT_ID": 66995, "ELEMENT_SET_NO": 999, "REV_AT_EPOCH": 227, "BSTAR": 0.00041226, "MEAN_MOTION_DOT": 5.751e-05, "MEAN_MOTION_DDOT": 0}, "tle": {"line1": "1 66995U 25292C   25359.24313955  .00005751  00000+0  41226-3 0  9996", "line2": "2 66995  97.6495  71.6733 0014688 227.9665 132.0312 15.04668363  2273"}}, "geometry": {"type": "Point", "coordinates": [-87.27339917001139, 68.65082986111118]}}, {"type": "Feature", "properties": {"norad_id": 66996, "name": "2025-292D", "group": "last-30-days", "lat": 66.77692640119068, "lon": -89.13184125127907, "alt_km": 550.0608178837019, "timestamp": "2025-12-26T04:40:04.513637+00:00", "meta": {"OBJECT_NAME": "2025-292D", "OBJECT_ID": "2025-292D", "EPOCH": "2025-12-25T05:49:36.025248", "MEAN_MOTION": 15.04678565, "ECCENTRICITY": 0.0013797, "INCLINATION": 97.6491, "RA_OF_ASC_NODE": 71.6729, "ARG_OF_PERICENTER": 230.5158, "MEAN_ANOMALY": 129.4848, "EPHEMERIS_TYPE": 0, "CLASSIFICATION_TYPE": "U", "NORAD_CAT_ID": 66996, "ELEMENT_SET_NO": 999, "REV_AT_EPOCH": 227, "BSTAR": 0.00027339, "MEAN_MOTION_DOT": 3.792e-05, "MEAN_MOTION_DDOT": 0}, "tle": {"line1": "1 66996U 25292D   25359.24277807  .00003792  00000+0  27339-3 0  9994", "line2": "2 66996  97.6491  71.6729 0013797 230.5158 129.4848 15.04678565  2271"}}, "geometry": {"type": "Point", "coordinates": [-89.13184125127907, 66.77692640119068]}}, {"type": "Feature", "properties": {"norad_id": 66997, "name": "2025-292E", "group": "last-30-days", "lat": 62.17936045986144, "lon": -92.62083958139021, "alt_km": 549.7636600771166, "timestamp": "2025-12-26T04:40:04.513647+00:00", "meta": {"OBJECT_NAME": "2025-292E", "OBJECT_ID": "2025-292E", "EPOCH": "2025-12-25T21:45:57.132000", "MEAN_MOTION": 15.04775651, "ECCENTRICITY": 0.00142607, "INCLINATION": 97.6509, "RA_OF_ASC_NODE": 72.3363, "ARG_OF_PERICENTER": 229.2639, "MEAN_ANOMALY": 130.735, "EPHEMERIS_TYPE": 0, "CLASSIFICATION_TYPE": "U", "NORAD_CAT_ID": 66997, "ELEMENT_SET_NO": 999, "REV_AT_EPOCH": 236, "BSTAR": 0.00031409768, "MEAN_MOTION_DOT": 4.378e-05, "MEAN_MOTION_DDOT": 0}, "tle": {"line1": "1 66997U 25292E   25359.90691125  .00004378  00000+0  31410-3 0  9997", "line2": "2 66997  97.6509  72.3363 0014260 229.2639 130.7350 15.04775651  2366"}}, "geometry": {"type": "Point", "coordinates": [-92.62083958139021, 62.17936045986144]}}, {"type": "Feature", "properties": {"norad_id": 66998, "name": "2025-292F", "group": "last-30-days", "lat": 53.002530162474834, "lon": -97.09152206094537, "alt_km": 549.0551636951814, "timestamp": "2025-12-26T04:40:04.513657+00:00", "meta": {"OBJECT_NAME": "2025-292F", "OBJECT_ID": "2025-292F", "EPOCH": "2025-12-25T21:43:28.668288", "MEAN_MOTION": 15.04960096, "ECCENTRICITY": 0.00153861, "INCLINATION": 97.6529, "RA_OF_ASC_NODE": 72.3422, "ARG_OF_PERICENTER": 230.1658, "MEAN_ANOMALY": 129.8215, "EPHEMERIS_TYPE": 0, "CLASSIFICATION_TYPE": "U", "NORAD_CAT_ID": 66998, "ELEMENT_SET_NO": 999, "REV_AT_EPOCH": 237, "BSTAR": 0.00041805662, "MEAN_MOTION_DOT": 5.88e-05, "MEAN_MOTION_DDOT": 0}, "tle": {"line1": "1 66998U 25292F   25359.90519292  .00005880  00000+0  41806-3 0  9991", "line2": "2 66998  97.6529  72.3422 0015386 230.1658 129.8215 15.04960096  2376"}}, "geometry": {"type": "Point", "coordinates": [-97.09152206094537, 53.002530162474834]}}, {"type": "Feature", "properties": {"norad_id": 66999, "name": "2025-292G", "group": "last-30-days", "lat": 49.41341956621193, "lon": -98.33698631725197, "alt_km": 548.9666759114889, "timestamp": "2025-12-26T04:40:04.513668+00:00", "meta": {"OBJECT_NAME": "2025-292G", "OBJECT_ID": "2025-292G", "EPOCH": "2025-12-25T23:18:15.676128", "MEAN_MOTION": 15.05025333, "ECCENTRICITY": 0.00149015, "INCLINATION": 97.6537, "RA_OF_ASC_NODE": 72.4105, "ARG_OF_PERICENTER": 231.8882, "MEAN_ANOMALY": 128.1001, "EPHEMERIS_TYPE": 0, "CLASSIFICATION_TYPE": "U", "NORAD_CAT_ID": 66999, "ELEMENT_SET_NO": 999, "REV_AT_EPOCH": 238, "BSTAR": 0.00042594591, "MEAN_MOTION_DOT": 6.002e-05, "MEAN_MOTION_DDOT": 0}, "tle": {"line1": "1 66999U 25292G   25359.97101477  .00006002  00000+0  42595-3 0  9994", "line2": "2 66999  97.6537  72.4105 0014901 231.8882 128.1001 15.05025333  2387"}}, "geometry": {"type": "Point", "coordinates": [-98.33698631725197, 49.41341956621193]}}]}